NORAD_CAT_ID,OBJECT_NAME,OBJECT_TYPE,EPOCH,MEAN_MOTION,ECCENTRICITY,INCLINATION,RA_OF_ASC_NODE,ARG_OF_PERICENTER,MEAN_ANOMALY,BSTAR,MEAN_MOTION_DOT,MEAN_MOTION_DDOT,TLE_LINE0,TLE_LINE1,TLE_LINE2,SEMIMAJOR_AXIS,PERIOD,APOGEE,PERIGEE,DECAYED
49161.0,STARLINK-3080,PAYLOAD,2022-09-06 03:51:12,14.98332234,0.0003171999999999,69.9998,283.1163,245.6036,114.4792,4.6752e-05,4.65e-06,0.0,0 STARLINK-3080,1 49161U 21082AH  22249.16055769  .00000465  00000-0  46752-4 0  9995,2 49161  69.9998 283.1163 0003172 245.6036 114.4792 14.98332234 55249,6950.186,96.107,574.256,569.846,0.0
49161.0,STARLINK-3080,PAYLOAD,2022-09-06 11:51:52,14.98331709,0.0003139,69.9989,282.2727,242.3843,117.6998,1.1493e-05,4.4e-07,0.0,0 STARLINK-3080,1 49161U 21082AH  22249.49435795  .00000044  00000-0  11493-4 0  9999,2 49161  69.9989 282.2727 0003139 242.3843 117.6998 14.98331709 55292,6950.188,96.107,574.234,569.871,0.0
49161.0,STARLINK-3080,PAYLOAD,2022-09-07 08:41:38,14.98323253,0.0003174999999999,69.999,280.085,243.6113,116.472,-0.00015086,-1.892e-05,0.0,0 STARLINK-3080,1 49161U 21082AH  22250.36224589 -.00001892  00000-0 -15086-3 0  9999,2 49161  69.9990 280.0850 0003175 243.6113 116.4720 14.98323253 55421,6950.214,96.107,574.285,569.872,0.0
49161.0,STARLINK-3080,PAYLOAD,2022-09-07 10:17:46,14.98322542,0.0003148999999999,69.9991,279.9167,242.5615,117.5224,-0.00015299,-1.918e-05,0.0,0 STARLINK-3080,1 49161U 21082AH  22250.42900667 -.00001918  00000-0 -15299-3 0  9999,2 49161  69.9991 279.9167 0003149 242.5615 117.5224 14.98322542 55438,6950.215999999999,96.107,574.27,569.8919999999998,0.0
49161.0,STARLINK-3080,PAYLOAD,2022-09-07 11:53:54,14.98322555,0.0003177,69.999,279.7482,244.4302,115.6529,-0.00015459,-1.937e-05,0.0,0 STARLINK-3080,1 49161U 21082AH  22250.49576698 -.00001937  00000-0 -15459-3 0  9998,2 49161  69.9990 279.7482 0003177 244.4302 115.6529 14.98322555 55442,6950.215999999999,96.107,574.289,569.873,0.0
49161.0,STARLINK-3080,PAYLOAD,2022-09-08 02:19:08,14.98306039,0.0003112,70.0011,278.2342,239.9602,120.1249,-0.00016789,-2.094e-05,0.0,0 STARLINK-3080,1 49161U 21082AH  22251.09662545 -.00002094  00000-0 -16789-3 0  9994,2 49161  70.0011 278.2342 0003112 239.9602 120.1249 14.98306039 55538,6950.267,96.109,574.295,569.969,0.0
49161.0,STARLINK-3080,PAYLOAD,2022-09-08 11:55:55,14.98322158,0.0003232,69.9987,277.2228,247.1542,112.9276,3.5305e-05,3.28e-06,0.0,0 STARLINK-3080,1 49161U 21082AH  22251.49717503  .00000328  00000-0  35305-4 0  9995,2 49161  69.9987 277.2228 0003232 247.1542 112.9276 14.98322158 55591,6950.217,96.108,574.328,569.836,0.0
49161.0,STARLINK-3080,PAYLOAD,2022-09-09 11:57:57,14.98321153,0.0003242,69.9984,274.6976,247.6597,112.4219,0.00017708,2.02e-05,0.0,0 STARLINK-3080,1 49161U 21082AH  22252.49857914  .00002020  00000-0  17708-3 0  9994,2 49161  69.9984 274.6976 0003242 247.6597 112.4219 14.98321153 55748,6950.22,96.108,574.339,569.832,0.0
49161.0,STARLINK-3080,PAYLOAD,2022-09-10 10:23:50,14.98331449,0.0003263999999999,69.9982,272.341,247.9652,112.116,0.00014278,1.611e-05,0.0,0 STARLINK-3080,1 49161U 21082AH  22253.43322015  .00001611  00000-0  14278-3 0  9992,2 49161  69.9982 272.3410 0003264 247.9652 112.1160 14.98331449 55889,6950.188,96.107,574.322,569.785,0.0
49161.0,STARLINK-3080,PAYLOAD,2022-09-11 04:01:18,14.98336483,0.0003241,69.9982,270.4894,246.9568,113.1249,0.00014605,1.65e-05,0.0,0 STARLINK-3080,1 49161U 21082AH  22254.16757574  .00001650  00000-0  14605-3 0  9992,2 49161  69.9982 270.4894 0003241 246.9568 113.1249 14.98336483 55998,6950.1730000000025,96.107,574.29,569.785,0.0
49161.0,STARLINK-3080,PAYLOAD,2022-09-11 12:01:58,14.98337905,0.0003245,69.9982,269.6477,247.2361,112.8455,0.0001523,1.725e-05,0.0,0 STARLINK-3080,1 49161U 21082AH  22254.50137393  .00001725  00000-0  15230-3 0  9999,2 49161  69.9982 269.6477 0003245 247.2361 112.8455 14.98337905 56046,6950.168000000002,96.106,574.289,569.778,0.0
49161.0,STARLINK-3080,PAYLOAD,2022-09-12 10:27:50,14.98346817,0.0003194,69.9983,267.2914,245.1877,114.895,0.00016089,1.828e-05,0.0,0 STARLINK-3080,1 49161U 21082AH  22255.43600295  .00001828  00000-0  16089-3 0  9995,2 49161  69.9983 267.2914 0003194 245.1877 114.8950 14.98346817 56188,6950.141,96.106,574.226,569.786,0.0
49161.0,STARLINK-3080,PAYLOAD,2022-09-12 18:28:30,14.98346839,0.0002862,69.9991,266.4487,245.2347,114.8515,0.00018472,2.113e-05,0.0,0 STARLINK-3080,1 49161U 21082AH  22255.76980140  .00002113  00000-0  18472-3 0  9997,2 49161  69.9991 266.4487 0002862 245.2347 114.8515 14.98346839 56234,6950.141,96.106,573.995,570.0169999999998,0.0
49161.0,STARLINK-3080,PAYLOAD,2022-09-13 10:29:51,14.98335061,0.0003055,69.9998,264.7666,247.2976,112.7861,-8.5763e-05,-1.116e-05,0.0,0 STARLINK-3080,1 49161U 21082AH  22256.43740077 -.00001116  00000-0 -85763-4 0  9997,2 49161  69.9998 264.7666 0003055 247.2976 112.7861 14.98335061 56333,6950.177,96.107,574.1659999999998,569.919,0.0
49161.0,STARLINK-3080,PAYLOAD,2022-09-14 10:31:52,14.98326892,0.0003108,69.9992,262.2404,249.0566,111.0261,-0.00023983,-2.953e-05,0.0,0 STARLINK-3080,1 49161U 21082AH  22257.43879976 -.00002953  00000-0 -23983-3 0  9994,2 49161  69.9992 262.2404 0003108 249.0566 111.0261 14.98326892 56488,6950.203,96.107,574.2280000000002,569.9069999999998,0.0
49161.0,STARLINK-3080,PAYLOAD,2022-09-14 13:44:08,14.98320603,0.0002633,70.0002,261.905,248.9647,111.1231,-0.00029209,-3.575e-05,0.0,0 STARLINK-3080,1 49161U 21082AH  22257.57232529 -.00003575  00000-0 -29209-3 0  9994,2 49161  70.0002 261.9050 0002633 248.9647 111.1231 14.98320603 56501,6950.222,96.108,573.9169999999998,570.257,0.0
49161.0,STARLINK-3080,PAYLOAD,2022-09-15 10:33:53,14.98323535,0.0003249,69.9993,259.7154,247.4457,112.6359,-0.00010886,-1.391e-05,0.0,0 STARLINK-3080,1 49161U 21082AH  22258.44020566 -.00001391  00000-0 -10886-3 0  9992,2 49161  69.9993 259.7154 0003249 247.4457 112.6359 14.98323535 56632,6950.2130000000025,96.107,574.336,569.82,0.0
49161.0,STARLINK-3080,PAYLOAD,2022-09-15 16:58:26,14.9831911,0.0003269,69.9994,259.04200000000003,248.6321,111.4489,7.039e-05,7.47e-06,0.0,0 STARLINK-3080,1 49161U 21082AH  22258.70725035  .00000747  00000-0  70390-4 0  9993,2 49161  69.9994 259.0420 0003269 248.6321 111.4489 14.98319110 56676,6950.227,96.108,574.364,569.82,0.0
49161.0,STARLINK-3080,PAYLOAD,2022-09-16 04:11:22,14.98334,0.0003276999999999,69.9993,257.8633,241.6955,118.3874,-0.00049567,-6.003e-05,0.0,0 STARLINK-3080,1 49161U 21082AH  22259.17456481 -.00006003  00000-0 -49567-3 0  9995,2 49161  69.9993 257.8633 0003277 241.6955 118.3874 14.98334000 56749,6950.181,96.107,574.323,569.768,0.0
49161.0,STARLINK-3080,PAYLOAD,2022-09-16 10:35:55,14.9832149,0.000337,69.9995,257.1903,249.2742,110.8056,8.915700000000001e-05,9.71e-06,0.0,0 STARLINK-3080,1 49161U 21082AH  22259.44161484  .00000971  00000-0  89157-4 0  9997,2 49161  69.9995 257.1903 0003370 249.2742 110.8056 14.98321490 56788,6950.219,96.108,574.4259999999998,569.742,0.0
49161.0,STARLINK-3080,PAYLOAD,2022-09-17 10:37:57,14.98323513,0.0003345,69.9995,254.6654,249.1474,110.9327,0.00022067,2.541e-05,0.0,0 STARLINK-3080,1 49161U 21082AH  22260.44302177  .00002541  00000-0  22067-3 0  9996,2 49161  69.9995 254.6654 0003345 249.1474 110.9327 14.98323513 56933,6950.2130000000025,96.107,574.403,569.753,0.0
49161.0,STARLINK-3080,PAYLOAD,2022-09-17 17:02:29,14.98325367,0.0003336,69.9995,253.992,249.0804,110.9998,0.00022657,2.611e-05,0.0,0 STARLINK-3080,1 49161U 21082AH  22260.71006245  .00002611  00000-0  22657-3 0  9996,2 49161  69.9995 253.9920 0003336 249.0804 110.9998 14.98325367 56974,6950.206999999999,96.107,574.391,569.754,0.0
49161.0,STARLINK-3080,PAYLOAD,2022-09-18 09:03:50,14.98330414,0.00033,69.9995,252.3089,248.8381,111.2425,0.00024735,2.860000000000001e-05,0.0,0 STARLINK-3080,1 49161U 21082AH  22261.37766255  .00002860  00000-0  24735-3 0  9998,2 49161  69.9995 252.3089 0003300 248.8381 111.2425 14.98330414 57071,6950.191999999999,96.107,574.35,569.763,0.0
49161.0,STARLINK-3080,PAYLOAD,2022-09-19 02:41:18,14.98334883,0.0003255,69.9995,250.4573,248.537,111.5442,0.00023715,2.738e-05,0.0,0 STARLINK-3080,1 49161U 21082AH  22262.11202068  .00002738  00000-0  23715-3 0  9999,2 49161  69.9995 250.4573 0003255 248.5370 111.5442 14.98334883 57180,6950.178000000001,96.107,574.305,569.781,0.0
49161.0,STARLINK-3080,PAYLOAD,2022-09-19 09:05:50,14.98337774,0.0003242,69.9995,249.784,248.5733,111.508,0.00025349,2.933e-05,0.0,0 STARLINK-3080,1 49161U 21082AH  22262.37905882  .00002933  00000-0  25349-3 0  9993,2 49161  69.9995 249.7840 0003242 248.5733 111.5080 14.98337774 57222,6950.169,96.107,574.2869999999998,569.781,0.0
49161.0,STARLINK-3080,PAYLOAD,2022-09-19 21:54:54,14.98342026,0.0003205,69.9995,248.4373,248.6251,111.4566,0.0002791999999999,3.241e-05,0.0,0 STARLINK-3080,1 49161U 21082AH  22262.91313481  .00003241  00000-0  27920-3 0  9991,2 49161  69.9995 248.4373 0003205 248.6251 111.4566 14.98342026 57307,6950.156,96.106,574.248,569.793,0.0
49161.0,STARLINK-3080,PAYLOAD,2022-09-20 09:07:50,14.98346263,0.0003123999999999,69.9995,247.2589,246.8083,113.2748,0.00029639,3.447e-05,0.0,0 STARLINK-3080,1 49161U 21082AH  22263.38044974  .00003447  00000-0  29639-3 0  9998,2 49161  69.9995 247.2589 0003124 246.8083 113.2748 14.98346263 57372,6950.143,96.106,574.179,569.836,0.0
49161.0,STARLINK-3080,PAYLOAD,2022-09-20 21:56:54,14.983615,0.0002937,69.9996,245.9121,237.0131,123.0746,-0.00017122,-2.137e-05,0.0,0 STARLINK-3080,1 49161U 21082AH  22263.91451755 -.00002137  00000-0 -17122-3 0  9997,2 49161  69.9996 245.9121 0002937 237.0131 123.0746 14.98361500 57454,6950.095,96.105,574.002,569.919,0.0
49161.0,STARLINK-3080,PAYLOAD,2022-09-21 07:33:43,14.983418599999998,0.0002808,69.9997,244.9015,250.279,109.8067,0.0001038,1.146e-05,0.0,0 STARLINK-3080,1 49161U 21082AH  22264.31508343  .00001146  00000-0  10380-3 0  9994,2 49161  69.9997 244.9015 0002808 250.2790 109.8067 14.98341860 57513,6950.156,96.106,573.9730000000002,570.07,0.0
